CCSDS_OMM_VERS = 2.0
CREATION_DATE  = 
ORIGINATOR     = 

OBJECT_NAME    = STARLINK-37132
OBJECT_ID      = 2026-054B
CENTER_NAME    = EARTH
REF_FRAME      = TEME
TIME_SYSTEM    = UTC
MEAN_ELEMENT_THEORY = SGP/SGP4

EPOCH          = 2026-03-30T11:46:28.383456
MEAN_MOTION    = 15.80970550
ECCENTRICITY   = .0001179
INCLINATION    = 53.1590
RA_OF_ASC_NODE = 208.4203
ARG_OF_PERICENTER = 38.8923
MEAN_ANOMALY   = 321.2185

EPHEMERIS_TYPE = 0
CLASSIFICATION_TYPE = U
NORAD_CAT_ID   = 68233
ELEMENT_SET_NO = 999
REV_AT_EPOCH   = 206
BSTAR          = .16138E-2
MEAN_MOTION_DOT = .331854E-2
MEAN_MOTION_DDOT = 0

CCSDS_OMM_VERS = 2.0
CREATION_DATE  = 
ORIGINATOR     = 

OBJECT_NAME    = STARLINK-37101
OBJECT_ID      = 2026-054C
CENTER_NAME    = EARTH
REF_FRAME      = TEME
TIME_SYSTEM    = UTC
MEAN_ELEMENT_THEORY = SGP/SGP4

EPOCH          = 2026-03-30T11:45:23.401152
MEAN_MOTION    = 15.80980430
ECCENTRICITY   = .0001146
INCLINATION    = 53.1588
RA_OF_ASC_NODE = 208.4146
ARG_OF_PERICENTER = 97.4122
MEAN_ANOMALY   = 262.7031

EPHEMERIS_TYPE = 0
CLASSIFICATION_TYPE = U
NORAD_CAT_ID   = 68234
ELEMENT_SET_NO = 999
REV_AT_EPOCH   = 206
BSTAR          = .15655E-2
MEAN_MOTION_DOT = .321658E-2
MEAN_MOTION_DDOT = 0

CCSDS_OMM_VERS = 2.0
CREATION_DATE  = 
ORIGINATOR     = 

OBJECT_NAME    = STARLINK-36963
OBJECT_ID      = 2026-054D
CENTER_NAME    = EARTH
REF_FRAME      = TEME
TIME_SYSTEM    = UTC
MEAN_ELEMENT_THEORY = SGP/SGP4

EPOCH          = 2026-03-30T12:00:01.999296
MEAN_MOTION    = 15.75232994
ECCENTRICITY   = .0000747
INCLINATION    = 53.1594
RA_OF_ASC_NODE = 208.3762
ARG_OF_PERICENTER = 67.7424
MEAN_ANOMALY   = 344.4717

EPHEMERIS_TYPE = 0
CLASSIFICATION_TYPE = U
NORAD_CAT_ID   = 68235
ELEMENT_SET_NO = 999
REV_AT_EPOCH   = 325
BSTAR          = -.12087E-3
MEAN_MOTION_DOT = -.19119E-3
MEAN_MOTION_DDOT = 0

CCSDS_OMM_VERS = 2.0
CREATION_DATE  = 
ORIGINATOR     = 

OBJECT_NAME    = STARLINK-37127
OBJECT_ID      = 2026-054E
CENTER_NAME    = EARTH
REF_FRAME      = TEME
TIME_SYSTEM    = UTC
MEAN_ELEMENT_THEORY = SGP/SGP4

EPOCH          = 2026-03-30T12:00:01.999296
MEAN_MOTION    = 15.75226398
ECCENTRICITY   = .0000992
INCLINATION    = 53.1597
RA_OF_ASC_NODE = 208.4818
ARG_OF_PERICENTER = 108.5416
MEAN_ANOMALY   = 252.1411

EPHEMERIS_TYPE = 0
CLASSIFICATION_TYPE = U
NORAD_CAT_ID   = 68236
ELEMENT_SET_NO = 999
REV_AT_EPOCH   = 333
BSTAR          = .19095E-3
MEAN_MOTION_DOT = .28714E-3
MEAN_MOTION_DDOT = 0

CCSDS_OMM_VERS = 2.0
CREATION_DATE  = 
ORIGINATOR     = 

OBJECT_NAME    = STARLINK-37095
OBJECT_ID      = 2026-054F
CENTER_NAME    = EARTH
REF_FRAME      = TEME
TIME_SYSTEM    = UTC
MEAN_ELEMENT_THEORY = SGP/SGP4

EPOCH          = 2026-03-30T12:00:01.999296
MEAN_MOTION    = 15.75255384
ECCENTRICITY   = .0001002
INCLINATION    = 53.1602
RA_OF_ASC_NODE = 208.4294
ARG_OF_PERICENTER = 77.5282
MEAN_ANOMALY   = 308.8996

EPHEMERIS_TYPE = 0
CLASSIFICATION_TYPE = U
NORAD_CAT_ID   = 68237
ELEMENT_SET_NO = 999
REV_AT_EPOCH   = 325
BSTAR          = -.70823E-4
MEAN_MOTION_DOT = -.11488E-3
MEAN_MOTION_DDOT = 0

CCSDS_OMM_VERS = 2.0
CREATION_DATE  = 
ORIGINATOR     = 

OBJECT_NAME    = STARLINK-37097
OBJECT_ID      = 2026-054G
CENTER_NAME    = EARTH
REF_FRAME      = TEME
TIME_SYSTEM    = UTC
MEAN_ELEMENT_THEORY = SGP/SGP4

EPOCH          = 2026-03-30T11:41:04.277184
MEAN_MOTION    = 15.80967460
ECCENTRICITY   = .000116
INCLINATION    = 53.1590
RA_OF_ASC_NODE = 208.3949
ARG_OF_PERICENTER = 62.9839
MEAN_ANOMALY   = 297.1302

EPHEMERIS_TYPE = 0
CLASSIFICATION_TYPE = U
NORAD_CAT_ID   = 68238
ELEMENT_SET_NO = 999
REV_AT_EPOCH   = 206
BSTAR          = .15074E-2
MEAN_MOTION_DOT = .309048E-2
MEAN_MOTION_DDOT = 0

CCSDS_OMM_VERS = 2.0
CREATION_DATE  = 
ORIGINATOR     = 

OBJECT_NAME    = STARLINK-37096
OBJECT_ID      = 2026-054H
CENTER_NAME    = EARTH
REF_FRAME      = TEME
TIME_SYSTEM    = UTC
MEAN_ELEMENT_THEORY = SGP/SGP4

EPOCH          = 2026-03-30T11:38:54.704832
MEAN_MOTION    = 15.80932716
ECCENTRICITY   = .0001035
INCLINATION    = 53.1592
RA_OF_ASC_NODE = 208.3847
ARG_OF_PERICENTER = 51.0128
MEAN_ANOMALY   = 309.0987

EPHEMERIS_TYPE = 0
CLASSIFICATION_TYPE = U
NORAD_CAT_ID   = 68239
ELEMENT_SET_NO = 999
REV_AT_EPOCH   = 206
BSTAR          = .12052E-2
MEAN_MOTION_DOT = .244699E-2
MEAN_MOTION_DDOT = 0

CCSDS_OMM_VERS = 2.0
CREATION_DATE  = 
ORIGINATOR     = 

OBJECT_NAME    = STARLINK-37092
OBJECT_ID      = 2026-054J
CENTER_NAME    = EARTH
REF_FRAME      = TEME
TIME_SYSTEM    = UTC
MEAN_ELEMENT_THEORY = SGP/SGP4

EPOCH          = 2026-03-30T11:39:59.497056
MEAN_MOTION    = 15.80946659
ECCENTRICITY   = .0001292
INCLINATION    = 53.1593
RA_OF_ASC_NODE = 208.3899
ARG_OF_PERICENTER = 61.3803
MEAN_ANOMALY   = 298.7349

EPHEMERIS_TYPE = 0
CLASSIFICATION_TYPE = U
NORAD_CAT_ID   = 68240
ELEMENT_SET_NO = 999
REV_AT_EPOCH   = 206
BSTAR          = .13094E-2
MEAN_MOTION_DOT = .266784E-2
MEAN_MOTION_DDOT = 0

CCSDS_OMM_VERS = 2.0
CREATION_DATE  = 
ORIGINATOR     = 

OBJECT_NAME    = STARLINK-37094
OBJECT_ID      = 2026-054K
CENTER_NAME    = EARTH
REF_FRAME      = TEME
TIME_SYSTEM    = UTC
MEAN_ELEMENT_THEORY = SGP/SGP4

EPOCH          = 2026-03-30T11:37:49.859040
MEAN_MOTION    = 15.80963291
ECCENTRICITY   = .0001075
INCLINATION    = 53.1592
RA_OF_ASC_NODE = 208.3794
ARG_OF_PERICENTER = 68.2812
MEAN_ANOMALY   = 291.8325

EPHEMERIS_TYPE = 0
CLASSIFICATION_TYPE = U
NORAD_CAT_ID   = 68241
ELEMENT_SET_NO = 999
REV_AT_EPOCH   = 206
BSTAR          = .14754E-2
MEAN_MOTION_DOT = .30218E-2
MEAN_MOTION_DDOT = 0

CCSDS_OMM_VERS = 2.0
CREATION_DATE  = 
ORIGINATOR     = 

OBJECT_NAME    = STARLINK-36356
OBJECT_ID      = 2026-054L
CENTER_NAME    = EARTH
REF_FRAME      = TEME
TIME_SYSTEM    = UTC
MEAN_ELEMENT_THEORY = SGP/SGP4

EPOCH          = 2026-03-30T11:36:44.875008
MEAN_MOTION    = 15.80976121
ECCENTRICITY   = .0000573
INCLINATION    = 53.1593
RA_OF_ASC_NODE = 208.3741
ARG_OF_PERICENTER = 87.8071
MEAN_ANOMALY   = 272.3017

EPHEMERIS_TYPE = 0
CLASSIFICATION_TYPE = U
NORAD_CAT_ID   = 68242
ELEMENT_SET_NO = 999
REV_AT_EPOCH   = 206
BSTAR          = .15907E-2
MEAN_MOTION_DOT = .327004E-2
MEAN_MOTION_DDOT = 0

CCSDS_OMM_VERS = 2.0
CREATION_DATE  = 
ORIGINATOR     = 

OBJECT_NAME    = STARLINK-36345
OBJECT_ID      = 2026-054M
CENTER_NAME    = EARTH
REF_FRAME      = TEME
TIME_SYSTEM    = UTC
MEAN_ELEMENT_THEORY = SGP/SGP4

EPOCH          = 2026-03-30T12:00:01.999296
MEAN_MOTION    = 15.75264069
ECCENTRICITY   = .0000982
INCLINATION    = 53.1600
RA_OF_ASC_NODE = 208.3715
ARG_OF_PERICENTER = 89.7884
MEAN_ANOMALY   = 324.2477

EPHEMERIS_TYPE = 0
CLASSIFICATION_TYPE = U
NORAD_CAT_ID   = 68243
ELEMENT_SET_NO = 999
REV_AT_EPOCH   = 329
BSTAR          = -.1455E-3
MEAN_MOTION_DOT = -.22906E-3
MEAN_MOTION_DDOT = 0

CCSDS_OMM_VERS = 2.0
CREATION_DATE  = 
ORIGINATOR     = 

OBJECT_NAME    = STARLINK-36310
OBJECT_ID      = 2026-054N
CENTER_NAME    = EARTH
REF_FRAME      = TEME
TIME_SYSTEM    = UTC
MEAN_ELEMENT_THEORY = SGP/SGP4

EPOCH          = 2026-03-30T11:33:30.536352
MEAN_MOTION    = 15.80978228
ECCENTRICITY   = .0000946
INCLINATION    = 53.1593
RA_OF_ASC_NODE = 208.3588
ARG_OF_PERICENTER = 59.6634
MEAN_ANOMALY   = 300.4483

EPHEMERIS_TYPE = 0
CLASSIFICATION_TYPE = U
NORAD_CAT_ID   = 68244
ELEMENT_SET_NO = 999
REV_AT_EPOCH   = 206
BSTAR          = .16049E-2
MEAN_MOTION_DOT = .330068E-2
MEAN_MOTION_DDOT = 0

