STARLINK-37132          
1 68233U 26054B   26089.49060629  .00331854  00000+0  16138-2 0  9994
2 68233  53.1590 208.4203 0001179  38.8923 321.2185 15.80970550  2067
STARLINK-37101          
1 68234U 26054C   26089.48985418  .00321658  00000+0  15655-2 0  9990
2 68234  53.1588 208.4146 0001146  97.4122 262.7031 15.80980430  2064
STARLINK-36963          
1 68235U 26054D   26089.50002314 -.00019119  00000+0 -12087-3 0  9994
2 68235  53.1594 208.3762 0000747  67.7424 344.4717 15.75232994  3256
STARLINK-37127          
1 68236U 26054E   26089.50002314  .00028714  00000+0  19095-3 0  9990
2 68236  53.1597 208.4818 0000992 108.5416 252.1411 15.75226398  3336
STARLINK-37095          
1 68237U 26054F   26089.50002314 -.00011488  00000+0 -70823-4 0  9990
2 68237  53.1602 208.4294 0001002  77.5282 308.8996 15.75255384  3256
STARLINK-37097          
1 68238U 26054G   26089.48685506  .00309048  00000+0  15074-2 0  9993
2 68238  53.1590 208.3949 0001160  62.9839 297.1302 15.80967460  2060
STARLINK-37096          
1 68239U 26054H   26089.48535538  .00244699  00000+0  12052-2 0  9996
2 68239  53.1592 208.3847 0001035  51.0128 309.0987 15.80932716  2069
STARLINK-37092          
1 68240U 26054J   26089.48610529  .00266784  00000+0  13094-2 0  9998
2 68240  53.1593 208.3899 0001292  61.3803 298.7349 15.80946659  2065
STARLINK-37094          
1 68241U 26054K   26089.48460485  .00302180  00000+0  14754-2 0  9998
2 68241  53.1592 208.3794 0001075  68.2812 291.8325 15.80963291  2063
STARLINK-36356          
1 68242U 26054L   26089.48385272  .00327004  00000+0  15907-2 0  9992
2 68242  53.1593 208.3741 0000573  87.8071 272.3017 15.80976121  2061
STARLINK-36345          
1 68243U 26054M   26089.50002314 -.00022906  00000+0 -14550-3 0  9998
2 68243  53.1600 208.3715 0000982  89.7884 324.2477 15.75264069  3297
STARLINK-36310          
1 68244U 26054N   26089.48160343  .00330068  00000+0  16049-2 0  9996
2 68244  53.1593 208.3588 0000946  59.6634 300.4483 15.80978228  2068
